******************************************************************************* Revised: Oct 22, 2010                Uranus                                799  PHYSICAL DATA (updated 2009-May-26):  Mass (10^24 kg)       =    86.8103      Density (g/cm^3)       =  1.318  Equat. radius (1 bar) = 25559+-4 km     Polar radius (km)      = 24973+-20  Volumetric mean radius= 25362+-12 km    Flattening             =  0.02293  Rotation period       = 17.24+-0.01 hr  Rot. rate(10^-4 rad/s) =  1.012     m = w^2a^3/GM         =  0.02954        Hydrostatic flat., fh  =  0.01987  Inferred rot. period  = 17.14+-0.9 hr   ks = 3*J2/m            =  0.357  Mom. of inert. I/MRo^2=  0.225          I/MRo^2 (upper bound)  =  0.232   Rocky core mass (Mc/M)=  0.0012         Y factor (He/H ratio)  =  0.262+-.048  GM (km^3/s^2)         = 5,793,966       GM 1-sigma( km^3/s^2)  = +-23  Equ. grav, ge (m/s^2) =  8.87           Pol. grav, gp (m/s^2)  =  9.19+-0.02  Geometric albedo      =  0.51           Visual magnitude V(1,0)= -7.19  Vis. mag. (opposition)= +5.52           Obliquity to orbit     = 97.86 deg  Sidereal orbit period = 84.016846 yr    Sidereal orbit period  = 30687.153 d  Mean daily motion     = 0.01176904 dg/d Mean orbit velocity    =  6.8352 km/s  Atmos. temp. (1 bar)  =  76+-2 K        Heat flow/mass (x10^7) =   Planetary Solar Const =   3.71 W/m^2    Dipole tilt/offset     = 58.6dg/0.3Rp   Escape velocity (km/s)=  21.3           Mag.dip.mom(gauss-Rp^3)= 0.23  Aroche(ice)/Rp        =  2.20           Hill's sphere rad., Rp = 2700*******************************************************************************  *******************************************************************************Ephemeris / WWW_USER Thu Dec 19 05:18:49 2013 Pasadena, USA      / Horizons    *******************************************************************************Target body name: Uranus (799)                    {source: URA095}Center body name: Solar System Barycenter (0)     {source: DE-0431LE-0431}Center-site name: BODY CENTER*******************************************************************************Start time      : A.D. 2013-Jan-01 00:00:00.0000 CT Stop  time      : A.D. 2014-Jan-01 00:00:00.0000 CT Step-size       : 1 calendar months*******************************************************************************Center geodetic : 0.00000000,0.00000000,0.0000000 {E-lon(deg),Lat(deg),Alt(km)}Center cylindric: 0.00000000,0.00000000,0.0000000 {E-lon(deg),Dxy(km),Dz(km)}Center radii    : (undefined)                                                  Output units    : AU-D                                                         Output format   : 02Reference frame : ICRF/J2000.0                                                 Output type     : GEOMETRIC cartesian statesCoordinate systm: Ecliptic and Mean Equinox of Reference Epoch                 *******************************************************************************JDCT ,   , X, Y, Z, VX, VY, VZ,*******************************************************************************$$SOE2456293.500000000, A.D. 2013-Jan-01 00:00:00.0000,  1.988905188037621E+01,  2.570901342088520E+00, -2.481243256190192E-01, -5.329928364654582E-04,  3.717311826521704E-03,  2.072741204873857E-05,2456324.500000000, A.D. 2013-Feb-01 00:00:00.0000,  1.987217816293475E+01,  2.686092066673892E+00, -2.474770673329137E-01, -5.555710788943687E-04,  3.714313636429995E-03,  2.103901134883395E-05,2456352.500000000, A.D. 2013-Mar-01 00:00:00.0000,  1.985633505605691E+01,  2.790053768926231E+00, -2.468855546940257E-01, -5.760144463571946E-04,  3.711503721737705E-03,  2.130607719044977E-05,2456383.500000000, A.D. 2013-Apr-01 00:00:00.0000,  1.983812711740384E+01,  2.905060432700739E+00, -2.462227468274316E-01, -5.987196057336813E-04,  3.708278518427250E-03,  2.154677481788146E-05,2456413.500000000, A.D. 2013-May-01 00:00:00.0000,  1.981984048361710E+01,  3.016259508454925E+00, -2.455723567128869E-01, -6.205660263147557E-04,  3.705009520001997E-03,  2.179567706522033E-05,2456444.500000000, A.D. 2013-Jun-01 00:00:00.0000,  1.980025425566971E+01,  3.131060639064217E+00, -2.448920695993154E-01, -6.430634161172937E-04,  3.701498686666759E-03,  2.212621695476208E-05,2456474.500000000, A.D. 2013-Jul-01 00:00:00.0000,  1.978063416214766E+01,  3.242053208166050E+00, -2.442252749708019E-01, -6.649084467767363E-04,  3.697981592898966E-03,  2.234880222031572E-05,2456505.500000000, A.D. 2013-Aug-01 00:00:00.0000,  1.975967256698661E+01,  3.356632608823966E+00, -2.435287429963608E-01, -6.875361114004837E-04,  3.694235327434940E-03,  2.259270258924550E-05,2456536.500000000, A.D. 2013-Sep-01 00:00:00.0000,  1.973801279310284E+01,  3.471093501913820E+00, -2.428223362242450E-01, -7.099834612312617E-04,  3.690323717486739E-03,  2.285023269766562E-05,2456566.500000000, A.D. 2013-Oct-01 00:00:00.0000,  1.971638681679317E+01,  3.581745311022632E+00, -2.421312021190988E-01, -7.317180918225509E-04,  3.686429096830639E-03,  2.316820296106202E-05,2456597.500000000, A.D. 2013-Nov-01 00:00:00.0000,  1.969335369507550E+01,  3.695960931275958E+00, -2.414083990327428E-01, -7.541708703654075E-04,  3.682274021842852E-03,  2.346776135725882E-05,2456627.500000000, A.D. 2013-Dec-01 00:00:00.0000,  1.967040105731046E+01,  3.806367440379676E+00, -2.407015997653124E-01, -7.759951123684981E-04,  3.678140612136254E-03,  2.367153452981851E-05,2456658.500000000, A.D. 2014-Jan-01 00:00:00.0000,  1.964599780056024E+01,  3.920321959327589E+00, -2.399614084317033E-01, -7.983933466533020E-04,  3.673725817743764E-03,  2.398798085054018E-05,$$EOE*******************************************************************************Coordinate system description:  Ecliptic and Mean Equinox of Reference Epoch    Reference epoch: J2000.0    xy-plane: plane of the Earth's orbit at the reference epoch    x-axis  : out along ascending node of instantaneous plane of the Earth's              orbit and the Earth's mean equator at the reference epoch    z-axis  : perpendicular to the xy-plane in the directional (+ or -) sense              of Earth's north pole at the reference epoch.Symbol meaning [1 au=149597870.700 km, 1 day=86400.0 s]:    JDCT     Epoch Julian Date, Coordinate Time      X      x-component of position vector (AU)                                     Y      y-component of position vector (AU)                                     Z      z-component of position vector (AU)                                     VX     x-component of velocity vector (AU/day)                                 VY     y-component of velocity vector (AU/day)                                 VZ     z-component of velocity vector (AU/day)                           Geometric states/elements have no aberration corrections applied. Computations by ...     Solar System Dynamics Group, Horizons On-Line Ephemeris System     4800 Oak Grove Drive, Jet Propulsion Laboratory     Pasadena, CA  91109   USA     Information: http://ssd.jpl.nasa.gov/     Connect    : telnet://ssd.jpl.nasa.gov:6775  (via browser)                  telnet ssd.jpl.nasa.gov 6775    (via command-line)     Author     : Jon.Giorgini@jpl.nasa.gov*******************************************************************************